{"type": "FeatureCollection", "features": [ {"type": "Feature", "properties": {"norad_id": 38552, "name": "METEOSAT-10 (MSG-3)", "group": "weather", "lat": -3.4002609460071103, "lon": 7.55760200317555, "alt_km": 35785.95927579873, "timestamp": "2025-12-04T19:33:59.278070+00:00", "meta": {"OBJECT_NAME": "METEOSAT-10 (MSG-3)", "OBJECT_ID": "2012-035B", "EPOCH": "2025-12-04T01:44:31.731072", "MEAN_MOTION": 1.00272508, "ECCENTRICITY": 8.021e-05, "INCLINATION": 4.2071, "RA_OF_ASC_NODE": 61.7359, "ARG_OF_PERICENTER": 221.6691, "MEAN_ANOMALY": 175.985, "EPHEMERIS_TYPE": 0, "CLASSIFICATION_TYPE": "U", "NORAD_CAT_ID": 38552, "ELEMENT_SET_NO": 999, "REV_AT_EPOCH": 4890, "BSTAR": 0, "MEAN_MOTION_DOT": 8e-08, "MEAN_MOTION_DDOT": 0}, "tle": {"line1": "1 38552U 12035B   25338.07258948  .00000008  00000+0  00000+0 0  9994", "line2": "2 38552   4.2071  61.7359 0000802 221.6691 175.9850  1.00272508 48908"}}, "geometry": {"type": "Point", "coordinates": [7.55760200317555, -3.4002609460071103]}}, {"type": "Feature", "properties": {"norad_id": 38771, "name": "METOP-B", "group": "weather", "lat": -59.63180396993905, "lon": -166.2060720788589, "alt_km": 827.3630850756208, "timestamp": "2025-12-04T19:33:59.278080+00:00", "meta": {"OBJECT_NAME": "METOP-B", "OBJECT_ID": "2012-049A", "EPOCH": "2025-12-04T06:36:41.517792", "MEAN_MOTION": 14.21403692, "ECCENTRICITY": 0.00025358, "INCLINATION": 98.6811, "RA_OF_ASC_NODE": 28.3773, "ARG_OF_PERICENTER": 163.2075, "MEAN_ANOMALY": 196.9186, "EPHEMERIS_TYPE": 0, "CLASSIFICATION_TYPE": "U", "NORAD_CAT_ID": 38771, "ELEMENT_SET_NO": 999, "REV_AT_EPOCH": 68557, "BSTAR": 0.00016412561, "MEAN_MOTION_DOT": 3.15e-06, "MEAN_MOTION_DDOT": 0}, "tle": {"line1": "1 38771U 12049A   25338.27548053  .00000315  00000+0  16413-3 0  9993", "line2": "2 38771  98.6811  28.3773 0002535 163.2075 196.9186 14.21403692685573"}}, "geometry": {"type": "Point", "coordinates": [-166.2060720788589, -59.63180396993905]}}, {"type": "Feature", "properties": {"norad_id": 39216, "name": "INSAT-3D", "group": "weather", "lat": 1.1230235255624, "lon": 136.86207207551115, "alt_km": 35787.421242309276, "timestamp": "2025-12-04T19:33:59.278091+00:00", "meta": {"OBJECT_NAME": "INSAT-3D", "OBJECT_ID": "2013-038B", "EPOCH": "2025-12-04T07:29:36.995136", "MEAN_MOTION": 1.00273364, "ECCENTRICITY": 0.00017693, "INCLINATION": 1.4214, "RA_OF_ASC_NODE": 85.087, "ARG_OF_PERICENTER": 155.9886, "MEAN_ANOMALY": 74.2409, "EPHEMERIS_TYPE": 0, "CLASSIFICATION_TYPE": "U", "NORAD_CAT_ID": 39216, "ELEMENT_SET_NO": 999, "REV_AT_EPOCH": 4512, "BSTAR": 0, "MEAN_MOTION_DOT": -3.24e-06, "MEAN_MOTION_DDOT": 0}, "tle": {"line1": "1 39216U 13038B   25338.31223374 -.00000324  00000+0  00000+0 0  9990", "line2": "2 39216   1.4214  85.0870 0001769 155.9886  74.2409  1.00273364 45122"}}, "geometry": {"type": "Point", "coordinates": [136.86207207551115, 1.1230235255624]}}, {"type": "Feature", "properties": {"norad_id": 39260, "name": "FENGYUN 3C", "group": "weather", "lat": -67.7273735137697, "lon": -21.768730874013716, "alt_km": 843.8899925258111, "timestamp": "2025-12-04T19:33:59.278101+00:00", "meta": {"OBJECT_NAME": "FENGYUN 3C", "OBJECT_ID": "2013-052A", "EPOCH": "2025-12-04T06:19:25.484160", "MEAN_MOTION": 14.15692416, "ECCENTRICITY": 0.00138611, "INCLINATION": 98.4754, "RA_OF_ASC_NODE": 316.3571, "ARG_OF_PERICENTER": 221.4857, "MEAN_ANOMALY": 138.5267, "EPHEMERIS_TYPE": 0, "CLASSIFICATION_TYPE": "U", "NORAD_CAT_ID": 39260, "ELEMENT_SET_NO": 999, "REV_AT_EPOCH": 63098, "BSTAR": 0.00015139245, "MEAN_MOTION_DOT": 2.56e-06, "MEAN_MOTION_DDOT": 0}, "tle": {"line1": "1 39260U 13052A   25338.26348940  .00000256  00000+0  15139-3 0  9992", "line2": "2 39260  98.4754 316.3571 0013861 221.4857 138.5267 14.15692416630980"}}, "geometry": {"type": "Point", "coordinates": [-21.768730874013716, -67.7273735137697]}}, {"type": "Feature", "properties": {"norad_id": 40069, "name": "METEOR-M 2", "group": "weather", "lat": 68.53400679389891, "lon": 159.02682097814645, "alt_km": 816.0161769304286, "timestamp": "2025-12-04T19:33:59.278111+00:00", "meta": {"OBJECT_NAME": "METEOR-M 2", "OBJECT_ID": "2014-037A", "EPOCH": "2025-12-04T07:13:31.247904", "MEAN_MOTION": 14.2138158, "ECCENTRICITY": 0.00047169, "INCLINATION": 98.4894, "RA_OF_ASC_NODE": 316.2095, "ARG_OF_PERICENTER": 237.7134, "MEAN_ANOMALY": 122.3587, "EPHEMERIS_TYPE": 0, "CLASSIFICATION_TYPE": "U", "NORAD_CAT_ID": 40069, "ELEMENT_SET_NO": 999, "REV_AT_EPOCH": 59163, "BSTAR": 0.00015782709, "MEAN_MOTION_DOT": 3.03e-06, "MEAN_MOTION_DDOT": 0}, "tle": {"line1": "1 40069U 14037A   25338.30105611  .00000303  00000+0  15783-3 0  9994", "line2": "2 40069  98.4894 316.2095 0004716 237.7134 122.3587 14.21381580591639"}}, "geometry": {"type": "Point", "coordinates": [159.02682097814645, 68.53400679389891]}}, {"type": "Feature", "properties": {"norad_id": 40267, "name": "HIMAWARI-8", "group": "weather", "lat": 0.00411687464556788, "lon": 148.02717960633083, "alt_km": 35790.43804059452, "timestamp": "2025-12-04T19:33:59.278122+00:00", "meta": {"OBJECT_NAME": "HIMAWARI-8", "OBJECT_ID": "2014-060A", "EPOCH": "2025-12-04T07:32:51.683712", "MEAN_MOTION": 1.00270577, "ECCENTRICITY": 0.00013009, "INCLINATION": 0.0461, "RA_OF_ASC_NODE": 139.0995, "ARG_OF_PERICENTER": 145.3702, "MEAN_ANOMALY": 42.8147, "EPHEMERIS_TYPE": 0, "CLASSIFICATION_TYPE": "U", "NORAD_CAT_ID": 40267, "ELEMENT_SET_NO": 999, "REV_AT_EPOCH": 4080, "BSTAR": 0, "MEAN_MOTION_DOT": -2.6e-06, "MEAN_MOTION_DDOT": 0}, "tle": {"line1": "1 40267U 14060A   25338.31448708 -.00000260  00000+0  00000+0 0  9993", "line2": "2 40267   0.0461 139.0995 0001300 145.3702  42.8147  1.00270577 40801"}}, "geometry": {"type": "Point", "coordinates": [148.02717960633083, 0.00411687464556788]}}, {"type": "Feature", "properties": {"norad_id": 40367, "name": "FENGYUN 2G", "group": "weather", "lat": 2.73461763599644, "lon": 106.94777903301012, "alt_km": 35799.70355952582, "timestamp": "2025-12-04T19:33:59.278133+00:00", "meta": {"OBJECT_NAME": "FENGYUN 2G", "OBJECT_ID": "2014-090A", "EPOCH": "2025-12-04T07:21:07.807968", "MEAN_MOTION": 1.00267095, "ECCENTRICITY": 0.00031226, "INCLINATION": 5.1453, "RA_OF_ASC_NODE": 75.1954, "ARG_OF_PERICENTER": 194.2721, "MEAN_ANOMALY": 13.9009, "EPHEMERIS_TYPE": 0, "CLASSIFICATION_TYPE": "U", "NORAD_CAT_ID": 40367, "ELEMENT_SET_NO": 999, "REV_AT_EPOCH": 4004, "BSTAR": 0, "MEAN_MOTION_DOT": -2.89e-06, "MEAN_MOTION_DDOT": 0}, "tle": {"line1": "1 40367U 14090A   25338.30634037 -.00000289  00000+0  00000+0 0  9999", "line2": "2 40367   5.1453  75.1954 0003122 194.2721  13.9009  1.00267095 40045"}}, "geometry": {"type": "Point", "coordinates": [106.94777903301012, 2.73461763599644]}}, {"type": "Feature", "properties": {"norad_id": 40732, "name": "METEOSAT-11 (MSG-4)", "group": "weather", "lat": -2.2108100748951967, "lon": 16.826132514720054, "alt_km": 35792.550110337295, "timestamp": "2025-12-04T19:33:59.278144+00:00", "meta": {"OBJECT_NAME": "METEOSAT-11 (MSG-4)", "OBJECT_ID": "2015-034A", "EPOCH": "2025-12-04T05:12:34.157664", "MEAN_MOTION": 1.00264754, "ECCENTRICITY": 0.00010194, "INCLINATION": 2.7141, "RA_OF_ASC_NODE": 72.0246, "ARG_OF_PERICENTER": 117.833, "MEAN_ANOMALY": 331.0261, "EPHEMERIS_TYPE": 0, "CLASSIFICATION_TYPE": "U", "NORAD_CAT_ID": 40732, "ELEMENT_SET_NO": 999, "REV_AT_EPOCH": 526, "BSTAR": 0, "MEAN_MOTION_DOT": 7.6e-07, "MEAN_MOTION_DDOT": 0}, "tle": {"line1": "1 40732U 15034A   25338.21706201  .00000076  00000+0  00000+0 0  9990", "line2": "2 40732   2.7141  72.0246 0001019 117.8330 331.0261  1.00264754  5266"}}, "geometry": {"type": "Point", "coordinates": [16.826132514720054, -2.2108100748951967]}}, {"type": "Feature", "properties": {"norad_id": 41105, "name": "ELEKTRO-L 2", "group": "weather", "lat": -6.103651746682065, "lon": -7.056051938859532, "alt_km": 35785.20757648334, "timestamp": "2025-12-04T19:33:59.278154+00:00", "meta": {"OBJECT_NAME": "ELEKTRO-L 2", "OBJECT_ID": "2015-074A", "EPOCH": "2025-12-04T01:40:17.137056", "MEAN_MOTION": 1.00269777, "ECCENTRICITY": 0.00040203, "INCLINATION": 6.2023, "RA_OF_ASC_NODE": 72.9293, "ARG_OF_PERICENTER": 197.7104, "MEAN_ANOMALY": 173.0548, "EPHEMERIS_TYPE": 0, "CLASSIFICATION_TYPE": "U", "NORAD_CAT_ID": 41105, "ELEMENT_SET_NO": 999, "REV_AT_EPOCH": 3655, "BSTAR": 0, "MEAN_MOTION_DOT": -1.05e-06, "MEAN_MOTION_DDOT": 0}, "tle": {"line1": "1 41105U 15074A   25338.06964279 -.00000105  00000+0  00000+0 0  9997", "line2": "2 41105   6.2023  72.9293 0004020 197.7104 173.0548  1.00269777 36559"}}, "geometry": {"type": "Point", "coordinates": [-7.056051938859532, -6.103651746682065]}}, {"type": "Feature", "properties": {"norad_id": 41752, "name": "INSAT-3DR", "group": "weather", "lat": 0.020205832096818796, "lon": 81.40500054595874, "alt_km": 35847.55327227722, "timestamp": "2025-12-04T19:33:59.278166+00:00", "meta": {"OBJECT_NAME": "INSAT-3DR", "OBJECT_ID": "2016-054A", "EPOCH": "2025-12-04T03:48:19.728288", "MEAN_MOTION": 1.00269596, "ECCENTRICITY": 0.00144991, "INCLINATION": 0.07, "RA_OF_ASC_NODE": 88.788, "ARG_OF_PERICENTER": 180.3635, "MEAN_ANOMALY": 295.1942, "EPHEMERIS_TYPE": 0, "CLASSIFICATION_TYPE": "U", "NORAD_CAT_ID": 41752, "ELEMENT_SET_NO": 999, "REV_AT_EPOCH": 3386, "BSTAR": 0, "MEAN_MOTION_DOT": -6.1e-07, "MEAN_MOTION_DDOT": 0}, "tle": {"line1": "1 41752U 16054A   25338.15856167 -.00000061  00000+0  00000+0 0  9991", "line2": "2 41752   0.0700  88.7880 0014499 180.3635 295.1942  1.00269596 33860"}}, "geometry": {"type": "Point", "coordinates": [81.40500054595874, 0.020205832096818796]}}]}